{"type": "FeatureCollection", "features": [ {"type": "Feature", "properties": {"norad_id": 31442, "name": "FENGYUN 1C DEB", "group": "fengyun-1c-debris", "lat": -24.112543678926528, "lon": 81.22055678748737, "alt_km": 731.9590838493041, "timestamp": "2025-12-17T10:52:54.635857+00:00", "meta": {"OBJECT_NAME": "FENGYUN 1C DEB", "OBJECT_ID": "1999-025BUE", "EPOCH": "2025-12-13T23:15:38.407392", "MEAN_MOTION": 14.33932663, "ECCENTRICITY": 0.0079016, "INCLINATION": 98.5308, "RA_OF_ASC_NODE": 73.932, "ARG_OF_PERICENTER": 9.0794, "MEAN_ANOMALY": 351.1798, "EPHEMERIS_TYPE": 0, "CLASSIFICATION_TYPE": "U", "NORAD_CAT_ID": 31442, "ELEMENT_SET_NO": 999, "REV_AT_EPOCH": 97378, "BSTAR": 0.00046189361, "MEAN_MOTION_DOT": 1.29e-05, "MEAN_MOTION_DDOT": 0}, "tle": {"line1": "1 31442U 99025BUE 25347.96919453  .00001290  00000+0  46189-3 0  9998", "line2": "2 31442  98.5308  73.9320 0079016   9.0794 351.1798 14.33932663973783"}}, "geometry": {"type": "Point", "coordinates": [81.22055678748737, -24.112543678926528]}}, {"type": "Feature", "properties": {"norad_id": 31443, "name": "FENGYUN 1C DEB", "group": "fengyun-1c-debris", "lat": -65.96112650569665, "lon": 112.69008833525052, "alt_km": 856.515709815274, "timestamp": "2025-12-17T10:52:54.635867+00:00", "meta": {"OBJECT_NAME": "FENGYUN 1C DEB", "OBJECT_ID": "1999-025BUF", "EPOCH": "2025-12-14T00:19:13.940256", "MEAN_MOTION": 14.48704109, "ECCENTRICITY": 0.01917925, "INCLINATION": 99.2105, "RA_OF_ASC_NODE": 87.6059, "ARG_OF_PERICENTER": 94.4301, "MEAN_ANOMALY": 267.8828, "EPHEMERIS_TYPE": 0, "CLASSIFICATION_TYPE": "U", "NORAD_CAT_ID": 31443, "ELEMENT_SET_NO": 999, "REV_AT_EPOCH": 66960, "BSTAR": 0.0013945487, "MEAN_MOTION_DOT": 6.586e-05, "MEAN_MOTION_DDOT": 0}, "tle": {"line1": "1 31443U 99025BUF 25348.01335579  .00006586  00000+0  13945-2 0  9993", "line2": "2 31443  99.2105  87.6059 0191792  94.4301 267.8828 14.48704109669604"}}, "geometry": {"type": "Point", "coordinates": [112.69008833525052, -65.96112650569665]}}, {"type": "Feature", "properties": {"norad_id": 31444, "name": "FENGYUN 1C DEB", "group": "fengyun-1c-debris", "lat": -78.92013582500923, "lon": 60.543092267287605, "alt_km": 708.3146356494653, "timestamp": "2025-12-17T10:52:54.635879+00:00", "meta": {"OBJECT_NAME": "FENGYUN 1C DEB", "OBJECT_ID": "1999-025BUG", "EPOCH": "2025-12-15T13:34:49.333728", "MEAN_MOTION": 14.69963952, "ECCENTRICITY": 0.00627859, "INCLINATION": 98.9275, "RA_OF_ASC_NODE": 291.8692, "ARG_OF_PERICENTER": 63.9063, "MEAN_ANOMALY": 296.8584, "EPHEMERIS_TYPE": 0, "CLASSIFICATION_TYPE": "U", "NORAD_CAT_ID": 31444, "ELEMENT_SET_NO": 999, "REV_AT_EPOCH": 97530, "BSTAR": 0.00094331949, "MEAN_MOTION_DOT": 5.769e-05, "MEAN_MOTION_DDOT": 0}, "tle": {"line1": "1 31444U 99025BUG 25349.56584877  .00005769  00000+0  94332-3 0  9994", "line2": "2 31444  98.9275 291.8692 0062785  63.9063 296.8584 14.69963952975300"}}, "geometry": {"type": "Point", "coordinates": [60.543092267287605, -78.92013582500923]}}, {"type": "Feature", "properties": {"norad_id": 31447, "name": "FENGYUN 1C DEB", "group": "fengyun-1c-debris", "lat": -60.83755490311557, "lon": -163.66725748187082, "alt_km": 842.9093354122579, "timestamp": "2025-12-17T10:52:54.635893+00:00", "meta": {"OBJECT_NAME": "FENGYUN 1C DEB", "OBJECT_ID": "1999-025BUK", "EPOCH": "2025-12-14T21:01:38.356896", "MEAN_MOTION": 14.2403744, "ECCENTRICITY": 0.02304397, "INCLINATION": 98.9919, "RA_OF_ASC_NODE": 30.1793, "ARG_OF_PERICENTER": 349.1545, "MEAN_ANOMALY": 10.471, "EPHEMERIS_TYPE": 0, "CLASSIFICATION_TYPE": "U", "NORAD_CAT_ID": 31447, "ELEMENT_SET_NO": 999, "REV_AT_EPOCH": 64882, "BSTAR": 0.00018562598, "MEAN_MOTION_DOT": 5.08e-06, "MEAN_MOTION_DDOT": 0}, "tle": {"line1": "1 31447U 99025BUK 25348.87613839  .00000508  00000+0  18563-3 0  9999", "line2": "2 31447  98.9919  30.1793 0230439 349.1545  10.4710 14.24037440648821"}}, "geometry": {"type": "Point", "coordinates": [-163.66725748187082, -60.83755490311557]}}, {"type": "Feature", "properties": {"norad_id": 31448, "name": "FENGYUN 1C DEB", "group": "fengyun-1c-debris", "lat": -35.49261120919467, "lon": 8.739804222466972, "alt_km": 834.344575412053, "timestamp": "2025-12-17T10:52:54.635905+00:00", "meta": {"OBJECT_NAME": "FENGYUN 1C DEB", "OBJECT_ID": "1999-025BUL", "EPOCH": "2025-12-11T07:02:55.403520", "MEAN_MOTION": 14.278066, "ECCENTRICITY": 0.00588763, "INCLINATION": 98.5011, "RA_OF_ASC_NODE": 356.6233, "ARG_OF_PERICENTER": 208.3666, "MEAN_ANOMALY": 151.4306, "EPHEMERIS_TYPE": 0, "CLASSIFICATION_TYPE": "U", "NORAD_CAT_ID": 31448, "ELEMENT_SET_NO": 999, "REV_AT_EPOCH": 64283, "BSTAR": 0.0011152887, "MEAN_MOTION_DOT": 2.766e-05, "MEAN_MOTION_DDOT": 0}, "tle": {"line1": "1 31448U 99025BUL 25345.29369680  .00002766  00000+0  11153-2 0  9990", "line2": "2 31448  98.5011 356.6233 0058876 208.3666 151.4306 14.27806600642836"}}, "geometry": {"type": "Point", "coordinates": [8.739804222466972, -35.49261120919467]}}, {"type": "Feature", "properties": {"norad_id": 31449, "name": "FENGYUN 1C DEB", "group": "fengyun-1c-debris", "lat": 46.96574977947437, "lon": 40.637665886756096, "alt_km": 866.630262626647, "timestamp": "2025-12-17T10:52:54.635916+00:00", "meta": {"OBJECT_NAME": "FENGYUN 1C DEB", "OBJECT_ID": "1999-025BUM", "EPOCH": "2025-12-10T21:12:43.510752", "MEAN_MOTION": 14.33705066, "ECCENTRICITY": 0.0144053, "INCLINATION": 98.5553, "RA_OF_ASC_NODE": 43.4188, "ARG_OF_PERICENTER": 274.279, "MEAN_ANOMALY": 84.1945, "EPHEMERIS_TYPE": 0, "CLASSIFICATION_TYPE": "U", "NORAD_CAT_ID": 31449, "ELEMENT_SET_NO": 999, "REV_AT_EPOCH": 97610, "BSTAR": 0.00033048, "MEAN_MOTION_DOT": 9.81e-06, "MEAN_MOTION_DDOT": 0}, "tle": {"line1": "1 31449U 99025BUM 25344.88383693  .00000981  00000+0  33048-3 0  9990", "line2": "2 31449  98.5553  43.4188 0144053 274.2790  84.1945 14.33705066976103"}}, "geometry": {"type": "Point", "coordinates": [40.637665886756096, 46.96574977947437]}}, {"type": "Feature", "properties": {"norad_id": 31451, "name": "FENGYUN 1C DEB", "group": "fengyun-1c-debris", "lat": -17.835524129846014, "lon": -149.41415386956325, "alt_km": 829.2505287512222, "timestamp": "2025-12-17T10:52:54.635926+00:00", "meta": {"OBJECT_NAME": "FENGYUN 1C DEB", "OBJECT_ID": "1999-025BUP", "EPOCH": "2025-12-15T08:44:58.473024", "MEAN_MOTION": 14.1362769, "ECCENTRICITY": 0.00313218, "INCLINATION": 98.7636, "RA_OF_ASC_NODE": 31.3841, "ARG_OF_PERICENTER": 204.0855, "MEAN_ANOMALY": 169.5331, "EPHEMERIS_TYPE": 0, "CLASSIFICATION_TYPE": "U", "NORAD_CAT_ID": 31451, "ELEMENT_SET_NO": 999, "REV_AT_EPOCH": 96047, "BSTAR": 0.00038957085, "MEAN_MOTION_DOT": 6.95e-06, "MEAN_MOTION_DDOT": 0}, "tle": {"line1": "1 31451U 99025BUP 25349.36456566  .00000695  00000+0  38957-3 0  9997", "line2": "2 31451  98.7636  31.3841 0031321 204.0855 169.5331 14.13627690960472"}}, "geometry": {"type": "Point", "coordinates": [-149.41415386956325, -17.835524129846014]}}, {"type": "Feature", "properties": {"norad_id": 31452, "name": "FENGYUN 1C DEB", "group": "fengyun-1c-debris", "lat": 57.42524011246548, "lon": 172.05365020904824, "alt_km": 806.9525579433748, "timestamp": "2025-12-17T10:52:54.635936+00:00", "meta": {"OBJECT_NAME": "FENGYUN 1C DEB", "OBJECT_ID": "1999-025BUQ", "EPOCH": "2025-12-11T21:57:24.094080", "MEAN_MOTION": 14.1516601, "ECCENTRICITY": 0.0040751, "INCLINATION": 98.6581, "RA_OF_ASC_NODE": 332.8811, "ARG_OF_PERICENTER": 130.1744, "MEAN_ANOMALY": 230.301, "EPHEMERIS_TYPE": 0, "CLASSIFICATION_TYPE": "U", "NORAD_CAT_ID": 31452, "ELEMENT_SET_NO": 999, "REV_AT_EPOCH": 96194, "BSTAR": 0.0005253, "MEAN_MOTION_DOT": 9.86e-06, "MEAN_MOTION_DDOT": 0}, "tle": {"line1": "1 31452U 99025BUQ 25345.91486220  .00000986  00000+0  52530-3 0  9991", "line2": "2 31452  98.6581 332.8811 0040751 130.1744 230.3010 14.15166010961940"}}, "geometry": {"type": "Point", "coordinates": [172.05365020904824, 57.42524011246548]}}, {"type": "Feature", "properties": {"norad_id": 31455, "name": "FENGYUN 1C DEB", "group": "fengyun-1c-debris", "lat": 36.024753321217155, "lon": -26.82232030379017, "alt_km": 693.8560217254981, "timestamp": "2025-12-17T10:52:54.635946+00:00", "meta": {"OBJECT_NAME": "FENGYUN 1C DEB", "OBJECT_ID": "1999-025BUT", "EPOCH": "2025-12-15T05:58:31.432224", "MEAN_MOTION": 14.11432558, "ECCENTRICITY": 0.02185525, "INCLINATION": 98.5743, "RA_OF_ASC_NODE": 337.3687, "ARG_OF_PERICENTER": 44.1098, "MEAN_ANOMALY": 317.7277, "EPHEMERIS_TYPE": 0, "CLASSIFICATION_TYPE": "U", "NORAD_CAT_ID": 31455, "ELEMENT_SET_NO": 999, "REV_AT_EPOCH": 96139, "BSTAR": 0.00031840513, "MEAN_MOTION_DOT": 6.8e-06, "MEAN_MOTION_DDOT": 0}, "tle": {"line1": "1 31455U 99025BUT 25349.24897491  .00000680  00000+0  31841-3 0  9993", "line2": "2 31455  98.5743 337.3687 0218552  44.1098 317.7277 14.11432558961398"}}, "geometry": {"type": "Point", "coordinates": [-26.82232030379017, 36.024753321217155]}}, {"type": "Feature", "properties": {"norad_id": 31456, "name": "FENGYUN 1C DEB", "group": "fengyun-1c-debris", "lat": -3.4342210944690557, "lon": -86.69445338686683, "alt_km": 775.3457948004498, "timestamp": "2025-12-17T10:52:54.635956+00:00", "meta": {"OBJECT_NAME": "FENGYUN 1C DEB", "OBJECT_ID": "1999-025BUU", "EPOCH": "2025-12-13T12:47:54.236832", "MEAN_MOTION": 14.42408216, "ECCENTRICITY": 0.00675973, "INCLINATION": 98.5769, "RA_OF_ASC_NODE": 89.8836, "ARG_OF_PERICENTER": 311.9856, "MEAN_ANOMALY": 47.5588, "EPHEMERIS_TYPE": 0, "CLASSIFICATION_TYPE": "U", "NORAD_CAT_ID": 31456, "ELEMENT_SET_NO": 999, "REV_AT_EPOCH": 97478, "BSTAR": 0.0013308034, "MEAN_MOTION_DOT": 4.48e-05, "MEAN_MOTION_DDOT": 0}, "tle": {"line1": "1 31456U 99025BUU 25347.53326663  .00004480  00000+0  13308-2 0  9991", "line2": "2 31456  98.5769  89.8836 0067597 311.9856  47.5588 14.42408216974788"}}, "geometry": {"type": "Point", "coordinates": [-86.69445338686683, -3.4342210944690557]}}]}